CCSDS_OMM_VERS,COMMENT,CREATION_DATE,ORIGINATOR,OBJECT_NAME,OBJECT_ID,CENTER_NAME,REF_FRAME,TIME_SYSTEM,MEAN_ELEMENT_THEORY,EPOCH,MEAN_MOTION,ECCENTRICITY,INCLINATION,RA_OF_ASC_NODE,ARG_OF_PERICENTER,MEAN_ANOMALY,EPHEMERIS_TYPE,CLASSIFICATION_TYPE,NORAD_CAT_ID,ELEMENT_SET_NO,REV_AT_EPOCH,BSTAR,MEAN_MOTION_DOT,MEAN_MOTION_DDOT,SEMIMAJOR_AXIS,PERIOD,APOAPSIS,PERIAPSIS,OBJECT_TYPE,RCS_SIZE,COUNTRY_CODE,LAUNCH_DATE,SITE,DECAY_DATE,FILE,GP_ID,TLE_LINE0,TLE_LINE1,TLE_LINE2
2,GENERATED VIA SPACE-TRACK.ORG API,2023-05-23T02:57:24,18 SPCS,KSF3-C,2023-001K,EARTH,TEME,UTC,SGP4,2023-05-22T21:40:24.231936,15.16320268,0.0012099,97.4782,202.8015,104.0349,256.223,0,U,55018,999,2123,0.00068409,0.00013229,0,6895.11,94.967,525.318,508.633,PAYLOAD,MEDIUM,LUXE,2023-01-03,AFETR,,3914964,232360888,0 KSF3-C,1 55018U 23001K   23142.90305824  .00013229  00000-0  68409-3 0  9995,2 55018  97.4782 202.8015 0012099 104.0349 256.2230 15.16320268 21230
2,GENERATED VIA SPACE-TRACK.ORG API,2023-05-23T06:26:12,18 SPCS,KSF3-C,2023-001K,EARTH,TEME,UTC,SGP4,2023-05-23T02:25:29.095680,15.16326131,0.0012113,97.4782,202.9967,103.3458,256.9126,0,U,55018,999,2126,0.00069223,0.0001339,0,6895.092,94.966,525.309,508.605,PAYLOAD,MEDIUM,LUXE,2023-01-03,AFETR,,3915029,232364330,0 KSF3-C,1 55018U 23001K   23143.10103120  .00013390  00000-0  69223-3 0  9997,2 55018  97.4782 202.9967 0012113 103.3458 256.9126 15.16326131 21266
2,GENERATED VIA SPACE-TRACK.ORG API,2023-05-23T14:26:13,18 SPCS,KSF3-C,2023-001K,EARTH,TEME,UTC,SGP4,2023-05-23T10:20:37.080672,15.16333709,0.0012127,97.4781,203.322,102.3016,257.9575,0,U,55018,999,2131,0.00067019,0.00012964,0,6895.07,94.966,525.296,508.573,PAYLOAD,MEDIUM,LUXE,2023-01-03,AFETR,,3915317,232371112,0 KSF3-C,1 55018U 23001K   23143.43098473  .00012964  00000-0  67019-3 0  9994,2 55018  97.4781 203.3220 0012127 102.3016 257.9575 15.16333709 21310
2,GENERATED VIA SPACE-TRACK.ORG API,2023-05-23T22:26:12,18 SPCS,KSF3-C,2023-001K,EARTH,TEME,UTC,SGP4,2023-05-23T18:15:44.917056,15.16341402,0.0012148,97.4781,203.6473,101.3886,258.8712,0,U,55018,999,2136,0.00062933,0.00012171,0,6895.046,94.965,525.287,508.535,PAYLOAD,MEDIUM,LUXE,2023-01-03,AFETR,,3915615,232378402,0 KSF3-C,1 55018U 23001K   23143.76093654  .00012171  00000-0  62933-3 0  9996,2 55018  97.4781 203.6473 0012148 101.3886 258.8712 15.16341402 21367
2,GENERATED VIA SPACE-TRACK.ORG API,2023-05-24T02:40:58,18 SPCS,KSF3-C,2023-001K,EARTH,TEME,UTC,SGP4,2023-05-23T21:25:48.026208,15.16342958,0.0012153,97.4781,203.7774,100.9847,259.2754,0,U,55018,999,2138,0.00057535,0.0001112,0,6895.041,94.965,525.286,508.527,PAYLOAD,MEDIUM,LUXE,2023-01-03,AFETR,,3915766,232406634,0 KSF3-C,1 55018U 23001K   23143.89291697  .00011120  00000-0  57535-3 0  9992,2 55018  97.4781 203.7774 0012153 100.9847 259.2754 15.16342958 21380
2,GENERATED VIA SPACE-TRACK.ORG API,2023-05-24T06:26:12,18 SPCS,KSF3-C,2023-001K,EARTH,TEME,UTC,SGP4,2023-05-24T02:10:52.628160,15.16348448,0.0012148,97.478,203.9725,100.3597,259.9006,0,U,55018,999,2141,0.00059917,0.00011586,0,6895.025,94.965,525.266,508.514,PAYLOAD,MEDIUM,LUXE,2023-01-03,AFETR,,3915813,232409423,0 KSF3-C,1 55018U 23001K   23144.09088690  .00011586  00000-0  59917-3 0  9994,2 55018  97.4780 203.9725 0012148 100.3597 259.9006 15.16348448 21418
2,GENERATED VIA SPACE-TRACK.ORG API,2023-05-24T14:26:20,18 SPCS,KSF3-C,2023-001K,EARTH,TEME,UTC,SGP4,2023-05-24T10:06:00.167328,15.16356099,0.0012139,97.4779,204.2978,99.381,260.8796,0,U,55018,999,2146,0.00061151,0.00011829,0,6895.002,94.965,525.236,508.497,PAYLOAD,MEDIUM,LUXE,2023-01-03,AFETR,,3916141,232417674,0 KSF3-C,1 55018U 23001K   23144.42083527  .00011829  00000-0  61151-3 0  9998,2 55018  97.4779 204.2978 0012139  99.3810 260.8796 15.16356099 21468
2,GENERATED VIA SPACE-TRACK.ORG API,2023-05-25T04:28:09,18 SPCS,KSF3-C,2023-001K,EARTH,TEME,UTC,SGP4,2023-05-24T14:51:04.650048,15.16359371,0.0012133,97.4778,204.493,98.8271,261.4337,0,U,55018,999,2149,0.00055533,0.00010735,0,6894.992,94.964,525.222,508.491,PAYLOAD,MEDIUM,LUXE,2023-01-03,AFETR,,3916549,232453173,0 KSF3-C,1 55018U 23001K   23144.61880382  .00010735  00000-0  55533-3 0  9995,2 55018  97.4778 204.4930 0012133  98.8271 261.4337 15.16359371 21493
2,GENERATED VIA SPACE-TRACK.ORG API,2023-05-24T22:26:11,18 SPCS,KSF3-C,2023-001K,EARTH,TEME,UTC,SGP4,2023-05-24T14:51:04.650048,15.16359371,0.0012133,97.4778,204.493,98.8271,261.4337,0,U,55018,999,2149,0.00055533,0.00010735,0,6894.992,94.964,525.222,508.491,PAYLOAD,MEDIUM,LUXE,2023-01-03,AFETR,,3916401,232423480,0 KSF3-C,1 55018U 23001K   23144.61880382  .00010735  00000-0  55533-3 0  9995,2 55018  97.4778 204.4930 0012133  98.8271 261.4337 15.16359371 21493
2,GENERATED VIA SPACE-TRACK.ORG API,2023-05-25T20:57:05,18 SPCS,KSF3-C,2023-001K,EARTH,TEME,UTC,SGP4,2023-05-25T14:36:26.336160,15.16379749,0.0012057,97.4777,205.4689,95.95,264.3107,0,U,55018,999,2164,0.00055127,0.00010662,0,6894.93,94.963,525.108,508.482,PAYLOAD,MEDIUM,LUXE,2023-01-03,AFETR,,3916775,232483748,0 KSF3-C,1 55018U 23001K   23145.60863815  .00010662  00000-0  55127-3 0  9995,2 55018  97.4777 205.4689 0012057  95.9500 264.3107 15.16379749 21647
2,GENERATED VIA SPACE-TRACK.ORG API,2023-05-25T22:26:13,18 SPCS,KSF3-C,2023-001K,EARTH,TEME,UTC,SGP4,2023-05-25T17:46:29.146368,15.16382212,0.0012057,97.4777,205.599,95.5555,264.7053,0,U,55018,999,2166,0.00054357,0.00010513,0,6894.922,94.963,525.101,508.474,PAYLOAD,MEDIUM,LUXE,2023-01-03,AFETR,,3916816,232485869,0 KSF3-C,1 55018U 23001K   23145.74061512  .00010513  00000-0  54357-3 0  9993,2 55018  97.4777 205.5990 0012057  95.5555 264.7053 15.16382212 21664
2,GENERATED VIA SPACE-TRACK.ORG API,2023-05-26T03:40:15,18 SPCS,KSF3-C,2023-001K,EARTH,TEME,UTC,SGP4,2023-05-25T20:56:31.937568,15.16383703,0.0012042,97.4777,205.7292,95.1603,265.1004,0,U,55018,999,2168,0.00050105,9.685e-05,0,6894.918,94.963,525.086,508.48,PAYLOAD,MEDIUM,LUXE,2023-01-03,AFETR,,3917122,232519368,0 KSF3-C,1 55018U 23001K   23145.87259187  .00009685  00000-0  50105-3 0  9999,2 55018  97.4777 205.7292 0012042  95.1603 265.1004 15.16383703 21684
2,GENERATED VIA SPACE-TRACK.ORG API,2023-05-26T06:56:13,18 SPCS,KSF3-C,2023-001K,EARTH,TEME,UTC,SGP4,2023-05-26T03:16:37.453440,15.16389744,0.0012016,97.4776,205.9894,94.3284,265.9322,0,U,55018,999,2172,0.00051812,0.00010019,0,6894.9,94.962,525.05,508.48,PAYLOAD,MEDIUM,LUXE,2023-01-03,AFETR,,3917272,232524318,0 KSF3-C,1 55018U 23001K   23146.13654460  .00010019  00000-0  51812-3 0  9991,2 55018  97.4776 205.9894 0012016  94.3284 265.9322 15.16389744 21727
2,GENERATED VIA SPACE-TRACK.ORG API,2023-05-26T20:31:07,18 SPCS,KSF3-C,2023-001K,EARTH,TEME,UTC,SGP4,2023-05-26T12:46:45.578208,15.16396695,0.0011964,97.4776,206.3797,93.1759,267.0843,0,U,55018,999,2178,0.00049609,9.591e-05,0,6894.879,94.962,524.993,508.495,PAYLOAD,MEDIUM,LUXE,2023-01-03,AFETR,,3917630,232557041,0 KSF3-C,1 55018U 23001K   23146.53247197  .00009591  00000-0  49609-3 0  9994,2 55018  97.4776 206.3797 0011964  93.1759 267.0843 15.16396695 21789
2,GENERATED VIA SPACE-TRACK.ORG API,2023-05-26T22:26:13,18 SPCS,KSF3-C,2023-001K,EARTH,TEME,UTC,SGP4,2023-05-26T17:31:49.585728,15.16400536,0.001195,97.4776,206.5749,92.5827,267.6774,0,U,55018,999,2181,0.00049347,9.541e-05,0,6894.867,94.962,524.971,508.493,PAYLOAD,MEDIUM,LUXE,2023-01-03,AFETR,,3917678,232560172,0 KSF3-C,1 55018U 23001K   23146.73043502  .00009541  00000-0  49347-3 0  9994,2 55018  97.4776 206.5749 0011950  92.5827 267.6774 15.16400536 21815
2,GENERATED VIA SPACE-TRACK.ORG API,2023-05-27T02:37:27,18 SPCS,KSF3-C,2023-001K,EARTH,TEME,UTC,SGP4,2023-05-26T20:41:52.249920,15.16402408,0.0011969,97.4777,206.705,92.1405,268.1199,0,U,55018,999,2183,0.00048476,9.372e-05,0,6894.861,94.962,524.979,508.474,PAYLOAD,MEDIUM,LUXE,2023-01-03,AFETR,,3917850,232588690,0 KSF3-C,1 55018U 23001K   23146.86241030  .00009372  00000-0  48476-3 0  9998,2 55018  97.4777 206.7050 0011969  92.1405 268.1199 15.16402408 21830
2,GENERATED VIA SPACE-TRACK.ORG API,2023-05-27T06:26:13,18 SPCS,KSF3-C,2023-001K,EARTH,TEME,UTC,SGP4,2023-05-27T03:01:57.487584,15.16408015,0.001194,97.4778,206.9652,91.3401,268.9199,0,U,55018,999,2187,0.0005011,9.692e-05,0,6894.844,94.961,524.942,508.477,PAYLOAD,MEDIUM,LUXE,2023-01-03,AFETR,,3917948,232592572,0 KSF3-C,1 55018U 23001K   23147.12635981  .00009692  00000-0  50110-3 0  9993,2 55018  97.4778 206.9652 0011940  91.3401 268.9199 15.16408015 21879
2,GENERATED VIA SPACE-TRACK.ORG API,2023-05-27T14:36:12,18 SPCS,KSF3-C,2023-001K,EARTH,TEME,UTC,SGP4,2023-05-27T10:57:03.925152,15.16413364,0.0011935,97.4778,207.2905,90.3718,269.8882,0,U,55018,999,2192,0.0004699,9.085e-05,0,6894.828,94.961,524.922,508.464,PAYLOAD,MEDIUM,LUXE,2023-01-03,AFETR,,3918322,232601716,0 KSF3-C,1 55018U 23001K   23147.45629543  .00009085  00000-0  46990-3 0  9993,2 55018  97.4778 207.2905 0011935  90.3718 269.8882 15.16413364 21926
2,GENERATED VIA SPACE-TRACK.ORG API,2023-05-27T22:36:12,18 SPCS,KSF3-C,2023-001K,EARTH,TEME,UTC,SGP4,2023-05-27T18:52:10.269408,15.16419245,0.0011917,97.4779,207.6157,89.4131,270.8467,0,U,55018,999,2197,0.00046826,9.055e-05,0,6894.81,94.961,524.892,508.459,PAYLOAD,MEDIUM,LUXE,2023-01-03,AFETR,,3918557,232607402,0 KSF3-C,1 55018U 23001K   23147.78622997  .00009055  00000-0  46826-3 0  9990,2 55018  97.4779 207.6157 0011917  89.4131 270.8467 15.16419245 21978
2,GENERATED VIA SPACE-TRACK.ORG API,2023-05-28T03:14:02,18 SPCS,KSF3-C,2023-001K,EARTH,TEME,UTC,SGP4,2023-05-27T20:27:11.521152,15.16420587,0.0011915,97.4779,207.6808,89.22,271.0398,0,U,55018,999,2198,0.0004751,9.188e-05,0,6894.806,94.96,524.886,508.456,PAYLOAD,MEDIUM,LUXE,2023-01-03,AFETR,,3918755,232637506,0 KSF3-C,1 55018U 23001K   23147.85221668  .00009188  00000-0  47510-3 0  9996,2 55018  97.4779 207.6808 0011915  89.2200 271.0398 15.16420587 21982
